{
  "type": "FeatureCollection",
  "generator": "overpass-turbo",
  "copyright": "The data included in this document is from www.openstreetmap.org. The data is made available under ODbL.",
  "timestamp": "2025-09-19T09:27:25Z",
  "features": [
    {
      "type": "Feature",
      "properties": {
        "@id": "way/57866379",
        "building": "yes",
        "pipeline": "substation",
        "ref:bag": "363100012192454",
        "source": "BAG",
        "source:date": "2014-02-11",
        "start_date": "1970",
        "substance": "gas",
        "substation": "distribution"
      },
      "geometry": {
        "type": "Polygon",
        "coordinates": [
          [
            [
              4.8627638,
              52.4025992
            ],
            [
              4.8626446,
              52.4026519
            ],
            [
              4.8626282,
              52.4026377
            ],
            [
              4.8626112,
              52.4026229
            ],
            [
              4.8625948,
              52.4026088
            ],
            [
              4.8625782,
              52.4025944
            ],
            [
              4.8626747,
              52.4025522
            ],
            [
              4.8626954,
              52.4025431
            ],
            [
              4.8627638,
              52.4025992
            ]
          ]
        ]
      },
      "id": "way/57866379"
    },
    {
      "type": "Feature",
      "properties": {
        "@id": "way/268473093",
        "building": "service",
        "pipeline": "substation",
        "ref:bag": "363100012208707",
        "source": "BAG",
        "source:date": "2014-02-11",
        "start_date": "1984",
        "substance": "gas"
      },
      "geometry": {
        "type": "Polygon",
        "coordinates": [
          [
            [
              4.8367643,
              52.3951558
            ],
            [
              4.8367635,
              52.395157
            ],
            [
              4.8367615,
              52.3951575
            ],
            [
              4.8367283,
              52.3951574
            ],
            [
              4.8367265,
              52.3951569
            ],
            [
              4.8367256,
              52.3951557
            ],
            [
              4.8367259,
              52.3951297
            ],
            [
              4.8367262,
              52.3951289
            ],
            [
              4.8367279,
              52.395128
            ],
            [
              4.8367618,
              52.3951281
            ],
            [
              4.8367638,
              52.3951286
            ],
            [
              4.8367646,
              52.3951298
            ],
            [
              4.8367643,
              52.3951558
            ]
          ]
        ]
      },
      "id": "way/268473093"
    },
    {
      "type": "Feature",
      "properties": {
        "@id": "way/279832920",
        "building": "yes",
        "pipeline": "substation",
        "power": "substation",
        "ref:bag": "363100012213212",
        "source": "BAG",
        "source:date": "2014-03-24",
        "start_date": "2002",
        "substation": "distribution"
      },
      "geometry": {
        "type": "Polygon",
        "coordinates": [
          [
            [
              4.9516289,
              52.3430002
            ],
            [
              4.9516287,
              52.3430011
            ],
            [
              4.9516271,
              52.3430021
            ],
            [
              4.9515933,
              52.3430079
            ],
            [
              4.9515914,
              52.3430077
            ],
            [
              4.9515902,
              52.3430067
            ],
            [
              4.9515782,
              52.3429812
            ],
            [
              4.9515783,
              52.3429803
            ],
            [
              4.951579,
              52.3429796
            ],
            [
              4.9515802,
              52.3429791
            ],
            [
              4.9516133,
              52.3429737
            ],
            [
              4.951615,
              52.3429738
            ],
            [
              4.9516164,
              52.3429743
            ],
            [
              4.9516289,
              52.3430002
            ]
          ]
        ]
      },
      "id": "way/279832920"
    },
    {
      "type": "Feature",
      "properties": {
        "@id": "way/279833168",
        "building": "yes",
        "operator": "Liander",
        "pipeline": "substation",
        "ref:bag": "363100012065710",
        "source": "BAG",
        "source:date": "2014-03-24",
        "start_date": "2002",
        "substance": "gas",
        "substation": "distribution"
      },
      "geometry": {
        "type": "Polygon",
        "coordinates": [
          [
            [
              4.9496973,
              52.3447285
            ],
            [
              4.9496769,
              52.3447413
            ],
            [
              4.9496572,
              52.3447537
            ],
            [
              4.9495977,
              52.3447184
            ],
            [
              4.9496295,
              52.3446883
            ],
            [
              4.9496973,
              52.3447285
            ]
          ]
        ]
      },
      "id": "way/279833168"
    },
    {
      "type": "Feature",
      "properties": {
        "@id": "way/282303853",
        "building": "yes",
        "operator": "Liander",
        "pipeline": "substation",
        "ref:bag": "363100012187477",
        "source": "BAG",
        "source:date": "2014-05-07",
        "start_date": "1979",
        "substance": "gas",
        "substation": "distribution"
      },
      "geometry": {
        "type": "Polygon",
        "coordinates": [
          [
            [
              4.9776504,
              52.3304737
            ],
            [
              4.9776174,
              52.3304904
            ],
            [
              4.9776031,
              52.3304797
            ],
            [
              4.9775985,
              52.3304763
            ],
            [
              4.9775931,
              52.3304723
            ],
            [
              4.9775793,
              52.330462
            ],
            [
              4.9776123,
              52.3304457
            ],
            [
              4.9776504,
              52.3304737
            ]
          ]
        ]
      },
      "id": "way/282303853"
    },
    {
      "type": "Feature",
      "properties": {
        "@id": "way/282340303",
        "architect": "cepezed",
        "building": "service",
        "building:colour": "#a0babc",
        "building:levels": "2",
        "building:material": "glass",
        "generator:output:hot_water": "100 MW",
        "name": "WOS Bullewijk",
        "operator": "Vattenfall",
        "pipeline": "substation",
        "ref:bag": "363100012086985",
        "source": "BAG",
        "source:date": "2014-05-07",
        "start_date": "1998",
        "substance": "hot_water",
        "substation": "distribution",
        "temperature": "120"
      },
      "geometry": {
        "type": "Polygon",
        "coordinates": [
          [
            [
              4.9492204,
              52.2984175
            ],
            [
              4.94912,
              52.2985274
            ],
            [
              4.9487622,
              52.2984045
            ],
            [
              4.9488626,
              52.2982947
            ],
            [
              4.9492204,
              52.2984175
            ]
          ]
        ]
      },
      "id": "way/282340303"
    },
    {
      "type": "Feature",
      "properties": {
        "@id": "way/1324870501",
        "landuse": "industrial",
        "operator": "OCAP",
        "operator:wikidata": "Q3407174",
        "pipeline": "substation",
        "substance": "carbon_dioxide"
      },
      "geometry": {
        "type": "Polygon",
        "coordinates": [
          [
            [
              4.7770546,
              52.3894235
            ],
            [
              4.777053,
              52.3893769
            ],
            [
              4.7772751,
              52.3893741
            ],
            [
              4.7772767,
              52.3894207
            ],
            [
              4.7770546,
              52.3894235
            ]
          ]
        ]
      },
      "id": "way/1324870501"
    },
    {
      "type": "Feature",
      "properties": {
        "@id": "way/762248045",
        "man_made": "pipeline"
      },
      "geometry": {
        "type": "LineString",
        "coordinates": [
          [
            4.9128775,
            52.3763906
          ],
          [
            4.9128566,
            52.3764895
          ]
        ]
      },
      "id": "way/762248045"
    },
    {
      "type": "Feature",
      "properties": {
        "@id": "way/762248049",
        "man_made": "pipeline"
      },
      "geometry": {
        "type": "LineString",
        "coordinates": [
          [
            4.9129553,
            52.376397
          ],
          [
            4.9129344,
            52.3764959
          ]
        ]
      },
      "id": "way/762248049"
    },
    {
      "type": "Feature",
      "properties": {
        "@id": "way/797127753",
        "location": "overground",
        "man_made": "pipeline"
      },
      "geometry": {
        "type": "LineString",
        "coordinates": [
          [
            4.7463557,
            52.4121754
          ],
          [
            4.7466476,
            52.4122056
          ],
          [
            4.7458027,
            52.4155454
          ],
          [
            4.741429,
            52.4150551
          ],
          [
            4.741181,
            52.4159587
          ],
          [
            4.7447116,
            52.4163453
          ]
        ]
      },
      "id": "way/797127753"
    },
    {
      "type": "Feature",
      "properties": {
        "@id": "way/797127754",
        "location": "overground",
        "man_made": "pipeline"
      },
      "geometry": {
        "type": "LineString",
        "coordinates": [
          [
            4.7463864,
            52.4120579
          ],
          [
            4.7465457,
            52.4120764
          ],
          [
            4.7465534,
            52.4120516
          ],
          [
            4.7480783,
            52.412228
          ],
          [
            4.7481106,
            52.4122318
          ],
          [
            4.7474985,
            52.4146843
          ]
        ]
      },
      "id": "way/797127754"
    },
    {
      "type": "Feature",
      "properties": {
        "@id": "way/797127755",
        "location": "overground",
        "man_made": "pipeline"
      },
      "geometry": {
        "type": "LineString",
        "coordinates": [
          [
            4.7493039,
            52.4172635
          ],
          [
            4.7502141,
            52.4142797
          ],
          [
            4.7507456,
            52.412471
          ],
          [
            4.748068,
            52.4121825
          ],
          [
            4.7465632,
            52.412006
          ],
          [
            4.7465853,
            52.411936
          ],
          [
            4.7464182,
            52.4119164
          ]
        ]
      },
      "id": "way/797127755"
    },
    {
      "type": "Feature",
      "properties": {
        "@id": "way/797127756",
        "location": "overground",
        "man_made": "pipeline"
      },
      "geometry": {
        "type": "LineString",
        "coordinates": [
          [
            4.7421029,
            52.4116205
          ],
          [
            4.742697,
            52.4116853
          ],
          [
            4.7427187,
            52.4116111
          ],
          [
            4.7437375,
            52.4117222
          ],
          [
            4.7436813,
            52.4119141
          ],
          [
            4.7442688,
            52.4119781
          ],
          [
            4.7442465,
            52.4120543
          ]
        ]
      },
      "id": "way/797127756"
    },
    {
      "type": "Feature",
      "properties": {
        "@id": "way/797127757",
        "location": "overground",
        "man_made": "pipeline"
      },
      "geometry": {
        "type": "LineString",
        "coordinates": [
          [
            4.743219,
            52.4093635
          ],
          [
            4.7427624,
            52.4109223
          ],
          [
            4.7440024,
            52.4110574
          ],
          [
            4.7437605,
            52.4118833
          ],
          [
            4.7447392,
            52.41199
          ],
          [
            4.7447048,
            52.4121077
          ]
        ]
      },
      "id": "way/797127757"
    },
    {
      "type": "Feature",
      "properties": {
        "@id": "way/797127758",
        "location": "overground",
        "man_made": "pipeline"
      },
      "geometry": {
        "type": "LineString",
        "coordinates": [
          [
            4.7452798,
            52.410351
          ],
          [
            4.7451515,
            52.4107889
          ],
          [
            4.7454297,
            52.4108193
          ],
          [
            4.7450727,
            52.4120381
          ],
          [
            4.7454036,
            52.4120742
          ],
          [
            4.7453717,
            52.412183
          ]
        ]
      },
      "id": "way/797127758"
    },
    {
      "type": "Feature",
      "properties": {
        "@id": "way/797127759",
        "location": "overground",
        "man_made": "pipeline"
      },
      "geometry": {
        "type": "LineString",
        "coordinates": [
          [
            4.7414009,
            52.4127109
          ],
          [
            4.7442424,
            52.4130206
          ],
          [
            4.744403,
            52.4124722
          ],
          [
            4.7443331,
            52.4124646
          ],
          [
            4.7443478,
            52.4124145
          ]
        ]
      },
      "id": "way/797127759"
    },
    {
      "type": "Feature",
      "properties": {
        "@id": "way/797127760",
        "location": "overground",
        "man_made": "pipeline"
      },
      "geometry": {
        "type": "LineString",
        "coordinates": [
          [
            4.7448569,
            52.4149518
          ],
          [
            4.7451777,
            52.4138566
          ],
          [
            4.7445316,
            52.4137862
          ],
          [
            4.7446289,
            52.4134541
          ],
          [
            4.7442816,
            52.4134162
          ],
          [
            4.7445387,
            52.4125385
          ],
          [
            4.744997,
            52.4125885
          ],
          [
            4.7450264,
            52.4124881
          ]
        ]
      },
      "id": "way/797127760"
    },
    {
      "type": "Feature",
      "properties": {
        "@id": "way/797127761",
        "location": "overground",
        "man_made": "pipeline"
      },
      "geometry": {
        "type": "LineString",
        "coordinates": [
          [
            4.7412905,
            52.414123
          ],
          [
            4.7439093,
            52.4144084
          ],
          [
            4.7440991,
            52.4137609
          ],
          [
            4.7438858,
            52.4137376
          ],
          [
            4.7440064,
            52.4133261
          ],
          [
            4.7442196,
            52.4133494
          ],
          [
            4.7444764,
            52.4124726
          ],
          [
            4.7447681,
            52.4125044
          ],
          [
            4.7447813,
            52.4124594
          ]
        ]
      },
      "id": "way/797127761"
    },
    {
      "type": "Feature",
      "properties": {
        "@id": "way/862081454",
        "location": "overground",
        "man_made": "pipeline",
        "substance": "water"
      },
      "geometry": {
        "type": "LineString",
        "coordinates": [
          [
            4.8596068,
            52.4124699
          ],
          [
            4.8597496,
            52.412435
          ]
        ]
      },
      "id": "way/862081454"
    },
    {
      "type": "Feature",
      "properties": {
        "@id": "way/862081459",
        "location": "overground",
        "man_made": "pipeline",
        "substance": "water"
      },
      "geometry": {
        "type": "LineString",
        "coordinates": [
          [
            4.8589302,
            52.4111439
          ],
          [
            4.8591359,
            52.4114563
          ],
          [
            4.8593585,
            52.4118148
          ],
          [
            4.8597496,
            52.412435
          ],
          [
            4.859775,
            52.4124737
          ],
          [
            4.8599027,
            52.4126602
          ],
          [
            4.8600715,
            52.4128915
          ],
          [
            4.8600961,
            52.4129341
          ],
          [
            4.8601102,
            52.4129704
          ],
          [
            4.8601197,
            52.4130331
          ],
          [
            4.8601253,
            52.4131496
          ],
          [
            4.8601338,
            52.4131502
          ]
        ]
      },
      "id": "way/862081459"
    },
    {
      "type": "Feature",
      "properties": {
        "@id": "way/862081460",
        "location": "overground",
        "man_made": "pipeline",
        "substance": "water"
      },
      "geometry": {
        "type": "LineString",
        "coordinates": [
          [
            4.8601102,
            52.4129704
          ],
          [
            4.860122,
            52.4129704
          ]
        ]
      },
      "id": "way/862081460"
    },
    {
      "type": "Feature",
      "properties": {
        "@id": "way/862081461",
        "location": "overground",
        "man_made": "pipeline",
        "substance": "water"
      },
      "geometry": {
        "type": "LineString",
        "coordinates": [
          [
            4.8600715,
            52.4128915
          ],
          [
            4.860081,
            52.4128898
          ]
        ]
      },
      "id": "way/862081461"
    },
    {
      "type": "Feature",
      "properties": {
        "@id": "way/862081462",
        "location": "overground",
        "man_made": "pipeline",
        "substance": "water"
      },
      "geometry": {
        "type": "LineString",
        "coordinates": [
          [
            4.8599027,
            52.4126602
          ],
          [
            4.8599139,
            52.4126574
          ]
        ]
      },
      "id": "way/862081462"
    },
    {
      "type": "Feature",
      "properties": {
        "@id": "way/862081463",
        "location": "overground",
        "man_made": "pipeline",
        "substance": "water"
      },
      "geometry": {
        "type": "LineString",
        "coordinates": [
          [
            4.859775,
            52.4124737
          ],
          [
            4.8597782,
            52.412473
          ]
        ]
      },
      "id": "way/862081463"
    },
    {
      "type": "Feature",
      "properties": {
        "@id": "way/867502996",
        "layer": "1",
        "location": "overground",
        "man_made": "pipeline"
      },
      "geometry": {
        "type": "LineString",
        "coordinates": [
          [
            4.8394852,
            52.4088694
          ],
          [
            4.8395242,
            52.4089022
          ],
          [
            4.8395233,
            52.409015
          ],
          [
            4.8393676,
            52.4090881
          ],
          [
            4.8393488,
            52.4091238
          ],
          [
            4.8394516,
            52.4092037
          ],
          [
            4.8389243,
            52.409446
          ],
          [
            4.8384772,
            52.4094736
          ],
          [
            4.8384291,
            52.4094949
          ],
          [
            4.8383829,
            52.4094581
          ],
          [
            4.8383471,
            52.4094719
          ],
          [
            4.8383914,
            52.4095099
          ],
          [
            4.8373284,
            52.4099937
          ],
          [
            4.8371774,
            52.4099776
          ],
          [
            4.8371218,
            52.4099397
          ],
          [
            4.8363578,
            52.409297
          ]
        ]
      },
      "id": "way/867502996"
    },
    {
      "type": "Feature",
      "properties": {
        "@id": "way/891621417",
        "man_made": "pipeline"
      },
      "geometry": {
        "type": "LineString",
        "coordinates": [
          [
            4.8392395,
            52.3974552
          ],
          [
            4.8392521,
            52.3974502
          ],
          [
            4.8392249,
            52.3974249
          ],
          [
            4.8392244,
            52.3974188
          ],
          [
            4.8393578,
            52.397373
          ]
        ]
      },
      "id": "way/891621417"
    },
    {
      "type": "Feature",
      "properties": {
        "@id": "way/891621418",
        "man_made": "pipeline"
      },
      "geometry": {
        "type": "LineString",
        "coordinates": [
          [
            4.8392104,
            52.3974408
          ],
          [
            4.8392191,
            52.3974174
          ],
          [
            4.8393556,
            52.3973705
          ]
        ]
      },
      "id": "way/891621418"
    },
    {
      "type": "Feature",
      "properties": {
        "@id": "way/923162189",
        "man_made": "pipeline",
        "substance": "water"
      },
      "geometry": {
        "type": "LineString",
        "coordinates": [
          [
            4.9897363,
            52.3109253
          ],
          [
            4.9897163,
            52.3108617
          ],
          [
            4.9897148,
            52.3108567
          ]
        ]
      },
      "id": "way/923162189"
    },
    {
      "type": "Feature",
      "properties": {
        "@id": "way/1150833740",
        "layer": "1",
        "location": "overhead",
        "man_made": "pipeline",
        "operator": "Shell"
      },
      "geometry": {
        "type": "LineString",
        "coordinates": [
          [
            4.7697434,
            52.3548521
          ],
          [
            4.7697371,
            52.3548903
          ],
          [
            4.7697256,
            52.3549152
          ],
          [
            4.7697148,
            52.3549542
          ]
        ]
      },
      "id": "way/1150833740"
    },
    {
      "type": "Feature",
      "properties": {
        "@id": "way/1180944767",
        "location": "underground",
        "man_made": "pipeline",
        "substance": "hot_water"
      },
      "geometry": {
        "type": "LineString",
        "coordinates": [
          [
            4.896394,
            52.3249683
          ],
          [
            4.8950529,
            52.3252355
          ]
        ]
      },
      "id": "way/1180944767"
    },
    {
      "type": "Feature",
      "properties": {
        "@id": "way/1185641378",
        "man_made": "pipeline"
      },
      "geometry": {
        "type": "LineString",
        "coordinates": [
          [
            4.7732414,
            52.3642025
          ],
          [
            4.7732821,
            52.3641844
          ]
        ]
      },
      "id": "way/1185641378"
    },
    {
      "type": "Feature",
      "properties": {
        "@id": "way/1185641379",
        "man_made": "pipeline"
      },
      "geometry": {
        "type": "LineString",
        "coordinates": [
          [
            4.773087,
            52.3642732
          ],
          [
            4.7730527,
            52.3642882
          ]
        ]
      },
      "id": "way/1185641379"
    },
    {
      "type": "Feature",
      "properties": {
        "@id": "way/1324869160",
        "layer": "-1",
        "location": "underground",
        "man_made": "pipeline",
        "name": "OCAP-hoofdleiding",
        "operator": "OCAP",
        "operator:wikidata": "Q3407174",
        "source": "Risicokaart",
        "substance": "carbon_dioxide",
        "usage": "transmission",
        "wikidata": "Q130550779"
      },
      "geometry": {
        "type": "LineString",
        "coordinates": [
          [
            4.5829913,
            52.2431006
          ],
          [
            4.585467,
            52.2448628
          ],
          [
            4.5915985,
            52.2491259
          ],
          [
            4.5998892,
            52.254919
          ],
          [
            4.6032286,
            52.2572759
          ],
          [
            4.6041995,
            52.2581715
          ],
          [
            4.6048486,
            52.2586263
          ],
          [
            4.6057619,
            52.2592961
          ],
          [
            4.6070829,
            52.2600513
          ],
          [
            4.6105081,
            52.2624646
          ],
          [
            4.6132278,
            52.2643282
          ],
          [
            4.617514,
            52.2672849
          ],
          [
            4.6217734,
            52.2703018
          ],
          [
            4.6257511,
            52.2730584
          ],
          [
            4.6294016,
            52.2756318
          ],
          [
            4.6312469,
            52.276925
          ],
          [
            4.6323493,
            52.2777406
          ],
          [
            4.6340632,
            52.2788861
          ],
          [
            4.6345031,
            52.2791355
          ],
          [
            4.6385318,
            52.2819465
          ],
          [
            4.6449517,
            52.2864653
          ],
          [
            4.6498427,
            52.2899107
          ],
          [
            4.6515003,
            52.2911281
          ],
          [
            4.6521386,
            52.2915923
          ],
          [
            4.6542147,
            52.2929458
          ],
          [
            4.6601048,
            52.29706
          ],
          [
            4.6633664,
            52.2993318
          ],
          [
            4.6650052,
            52.3005243
          ],
          [
            4.6677813,
            52.3024597
          ],
          [
            4.6715498,
            52.3050986
          ],
          [
            4.6759835,
            52.3082294
          ],
          [
            4.6801811,
            52.3111746
          ],
          [
            4.6803582,
            52.3115058
          ],
          [
            4.682579,
            52.3129603
          ],
          [
            4.6831423,
            52.3132309
          ],
          [
            4.6855684,
            52.3149419
          ],
          [
            4.6865514,
            52.3156003
          ],
          [
            4.6888688,
            52.3171924
          ],
          [
            4.6903574,
            52.3181728
          ],
          [
            4.692809,
            52.3198714
          ],
          [
            4.6984591,
            52.3237855
          ],
          [
            4.7034466,
            52.3272748
          ],
          [
            4.7143149,
            52.3349392
          ],
          [
            4.7195801,
            52.3385054
          ],
          [
            4.7281551,
            52.3444834
          ],
          [
            4.735043,
            52.3493203
          ],
          [
            4.7352791,
            52.3495955
          ],
          [
            4.7384709,
            52.3521448
          ],
          [
            4.739635,
            52.3531671
          ],
          [
            4.7415501,
            52.354979
          ],
          [
            4.7456968,
            52.3584355
          ],
          [
            4.747585,
            52.3601849
          ],
          [
            4.7487277,
            52.361302
          ],
          [
            4.7537702,
            52.3650102
          ],
          [
            4.7552991,
            52.3644959
          ],
          [
            4.7575468,
            52.3640046
          ],
          [
            4.7607386,
            52.3636246
          ],
          [
            4.7610122,
            52.363641
          ],
          [
            4.7612268,
            52.3636999
          ],
          [
            4.7613716,
            52.3637884
          ],
          [
            4.7629112,
            52.3652133
          ],
          [
            4.7644722,
            52.3664089
          ],
          [
            4.7647941,
            52.3665334
          ],
          [
            4.7654271,
            52.3666775
          ],
          [
            4.7679376,
            52.3670575
          ],
          [
            4.7684312,
            52.3671819
          ],
          [
            4.7687101,
            52.3673261
          ],
          [
            4.7690856,
            52.367575
          ],
          [
            4.771961,
            52.369645
          ],
          [
            4.7720039,
            52.3711648
          ],
          [
            4.7755015,
            52.3735294
          ],
          [
            4.7755471,
            52.3735409
          ],
          [
            4.7771189,
            52.3732216
          ],
          [
            4.7771806,
            52.373224
          ],
          [
            4.7772369,
            52.3732445
          ],
          [
            4.7808123,
            52.3754191
          ],
          [
            4.780941,
            52.3755206
          ],
          [
            4.7810429,
            52.375668
          ],
          [
            4.7811127,
            52.3757924
          ],
          [
            4.7811502,
            52.3760347
          ],
          [
            4.781177,
            52.379375
          ],
          [
            4.7811475,
            52.3818849
          ],
          [
            4.777202,
            52.3830817
          ],
          [
            4.7770733,
            52.3853278
          ],
          [
            4.7769821,
            52.3894015
          ],
          [
            4.7771645,
            52.3894007
          ]
        ]
      },
      "id": "way/1324869160"
    },
    {
      "type": "Feature",
      "properties": {
        "@id": "node/8014452127",
        "pipeline": "valve"
      },
      "geometry": {
        "type": "Point",
        "coordinates": [
          4.8618467,
          52.410984
        ]
      },
      "id": "node/8014452127"
    },
    {
      "type": "Feature",
      "properties": {
        "@id": "node/8019224847",
        "emergency": "dry_riser_inlet",
        "pipeline": "valve"
      },
      "geometry": {
        "type": "Point",
        "coordinates": [
          4.8613798,
          52.4117016
        ]
      },
      "id": "node/8019224847"
    },
    {
      "type": "Feature",
      "properties": {
        "@id": "node/8019423209",
        "emergency": "dry_riser_inlet",
        "pipeline": "valve"
      },
      "geometry": {
        "type": "Point",
        "coordinates": [
          4.8613829,
          52.4117006
        ]
      },
      "id": "node/8019423209"
    },
    {
      "type": "Feature",
      "properties": {
        "@id": "node/8019423210",
        "emergency": "dry_riser_inlet",
        "pipeline": "valve"
      },
      "geometry": {
        "type": "Point",
        "coordinates": [
          4.8613766,
          52.4117028
        ]
      },
      "id": "node/8019423210"
    },
    {
      "type": "Feature",
      "properties": {
        "@id": "node/8025225000",
        "pipeline": "valve",
        "turn_to_close": "s"
      },
      "geometry": {
        "type": "Point",
        "coordinates": [
          4.8607714,
          52.4115308
        ]
      },
      "id": "node/8025225000"
    },
    {
      "type": "Feature",
      "properties": {
        "@id": "node/8041810198",
        "pipeline": "valve"
      },
      "geometry": {
        "type": "Point",
        "coordinates": [
          4.8515089,
          52.4098355
        ]
      },
      "id": "node/8041810198"
    },
    {
      "type": "Feature",
      "properties": {
        "@id": "node/11178370890",
        "man_made": "pumping_station",
        "operator": "Gasunie",
        "operator:wikidata": "Q918239",
        "pipeline": "substation",
        "substance": "gas",
        "substation": "distribution"
      },
      "geometry": {
        "type": "Point",
        "coordinates": [
          4.9009766,
          52.3875777
        ]
      },
      "id": "node/11178370890"
    }
  ]
}